{"type": "FeatureCollection", "features": [{"type": "Feature", "geometry": {"type": "Point", "coordinates": [128.156610184886, 36.587438954130185]}, "properties": {"node_id": "R001", "original_node_id": "3580024101", "x": 303507.4045528976, "y": 443852.2576925198, "degree": 7, "node_role": "anchor|named_interchange_or_intersection|branch|node_type_106", "road_rank": "101", "road_class": "고속국도/고속도로", "importance_score": 211.0, "node_type": "106", "node_name": "점촌함창IC", "turn_p": "0"}}, {"type": "Feature", "geometry": {"type": "Point", "coordinates": [128.1112276911841, 36.69793174069319]}, "properties": {"node_id": "R002", "original_node_id": "3590012506", "x": 299303.92679780396, "y": 456066.50086126686, "degree": 8, "node_role": "anchor|named_interchange_or_intersection|branch|node_type_106", "road_rank": "101", "road_class": "고속국도/고속도로", "importance_score": 210.891274, "node_type": "106", "node_name": "문경새재IC", "turn_p": "0"}}, {"type": "Feature", "geometry": {"type": "Point", "coordinates": [128.1523027602236, 36.58382519540017]}, "properties": {"node_id": "R003", "original_node_id": "3580023601", "x": 303126.7170322139, "y": 443446.58520550467, "degree": 7, "node_role": "anchor|named_interchange_or_intersection|branch|node_type_106", "road_rank": "101", "road_class": "고속국도/고속도로", "importance_score": 210.879363, "node_type": "106", "node_name": "점촌함창IC", "turn_p": "0"}}, {"type": "Feature", "geometry": {"type": "Point", "coordinates": [128.16749908794347, 36.5325799823054]}, "properties": {"node_id": "R004", "original_node_id": "3580019201", "x": 304555.8188714046, "y": 437776.00159090554, "degree": 10, "node_role": "anchor|named_interchange_or_intersection|branch|node_type_106", "road_rank": "101", "road_class": "고속국도/고속도로", "importance_score": 210.875393, "node_type": "106", "node_name": "북상주IC", "turn_p": "0"}}, {"type": "Feature", "geometry": {"type": "Point", "coordinates": [127.42427901727457, 36.59310877432778]}, "properties": {"node_id": "R005", "original_node_id": "2830014702", "x": 237966.1651999997, "y": 443942.4752999991, "degree": 7, "node_role": "anchor|named_interchange_or_intersection|branch|node_type_106", "road_rank": "101", "road_class": "고속국도/고속도로", "importance_score": 207.855585, "node_type": "106", "node_name": "남이JC", "turn_p": "1"}}, {"type": "Feature", "geometry": {"type": "Point", "coordinates": [127.45085389140704, 37.086408549290134]}, "properties": {"node_id": "R006", "original_node_id": "2310021215", "x": 240085.91500580593, "y": 498697.5494148731, "degree": 7, "node_role": "anchor|named_interchange_or_intersection|branch|node_type_106", "road_rank": "101", "road_class": "고속국도/고속도로", "importance_score": 207.682417, "node_type": "106", "node_name": "일죽IC삼거리", "turn_p": "0"}}, {"type": "Feature", "geometry": {"type": "Point", "coordinates": [128.09485152608235, 36.12773218717024]}, "properties": {"node_id": "R007", "original_node_id": "3530110805", "x": 298558.2609989768, "y": 392773.07044647227, "degree": 7, "node_role": "anchor|named_interchange_or_intersection|branch|node_type_106", "road_rank": "101", "road_class": "고속국도/고속도로", "importance_score": 204.833857, "node_type": "106", "node_name": "김천IC앞", "turn_p": "0"}}, {"type": "Feature", "geometry": {"type": "Point", "coordinates": [128.23947499157688, 36.372860391594216]}, "properties": {"node_id": "R008", "original_node_id": "3580025401", "x": 311229.7959664518, "y": 420131.7135668276, "degree": 7, "node_role": "anchor|named_interchange_or_intersection|branch|node_type_106", "road_rank": "101", "road_class": "고속국도/고속도로", "importance_score": 203.787827, "node_type": "106", "node_name": "낙동Jct", "turn_p": "0"}}, {"type": "Feature", "geometry": {"type": "Point", "coordinates": [127.1137933871101, 35.98815962014531]}, "properties": {"node_id": "R009", "original_node_id": "3120019102", "x": 210261.5670216906, "y": 376736.843722188, "degree": 7, "node_role": "anchor|named_interchange_or_intersection|branch|node_type_106", "road_rank": "101", "road_class": "고속국도/고속도로", "importance_score": 203.662304, "node_type": "106", "node_name": "익산IC(남측)", "turn_p": "1"}}, {"type": "Feature", "geometry": {"type": "Point", "coordinates": [128.00201032461408, 36.19700620201234]}, "properties": {"node_id": "R010", "original_node_id": "3530109702", "x": 290121.10965129983, "y": 400370.0354566022, "degree": 10, "node_role": "anchor|named_interchange_or_intersection|branch|node_type_106", "road_rank": "101", "road_class": "고속국도/고속도로", "importance_score": 201.295681, "node_type": "106", "node_name": "추풍령IC(남측)", "turn_p": "1"}}, {"type": "Feature", "geometry": {"type": "Point", "coordinates": [128.09469721056038, 36.13195163961604]}, "properties": {"node_id": "R011", "original_node_id": "3530014202", "x": 298539.0937338465, "y": 393241.1365967532, "degree": 7, "node_role": "anchor|named_interchange_or_intersection|branch|node_type_106", "road_rank": "101", "road_class": "고속국도/고속도로", "importance_score": 201.248342, "node_type": "106", "node_name": "김천IC(남측)", "turn_p": "1"}}, {"type": "Feature", "geometry": {"type": "Point", "coordinates": [127.42885630180209, 36.570233958285506]}, "properties": {"node_id": "R012", "original_node_id": "2830018302", "x": 238387.0845999997, "y": 441405.8582000006, "degree": 8, "node_role": "anchor|named_interchange_or_intersection|branch|node_type_106", "road_rank": "101", "road_class": "고속국도/고속도로", "importance_score": 199.84856, "node_type": "106", "node_name": "청주JC", "turn_p": "0"}}, {"type": "Feature", "geometry": {"type": "Point", "coordinates": [127.98464273279068, 36.75847833266614]}, "properties": {"node_id": "R013", "original_node_id": "2800135802", "x": 287922.36481666693, "y": 462662.13668395666, "degree": 8, "node_role": "anchor|named_interchange_or_intersection|branch|node_type_106", "road_rank": "101", "road_class": "고속국도/고속도로", "importance_score": 197.958726, "node_type": "106", "node_name": "적석교차로", "turn_p": "1"}}, {"type": "Feature", "geometry": {"type": "Point", "coordinates": [127.82986453530074, 36.801985282403976]}, "properties": {"node_id": "R014", "original_node_id": "2800132602", "x": 274059.4741049671, "y": 467359.4208217225, "degree": 9, "node_role": "anchor|named_interchange_or_intersection|branch|node_type_106", "road_rank": "103", "road_class": "일반국도", "importance_score": 197.847251, "node_type": "106", "node_name": "검승교차로", "turn_p": "1"}}, {"type": "Feature", "geometry": {"type": "Point", "coordinates": [127.90269321445172, 36.780526873189345]}, "properties": {"node_id": "R015", "original_node_id": "2800133702", "x": 280581.53190902463, "y": 465036.88996646635, "degree": 10, "node_role": "anchor|named_interchange_or_intersection|branch|node_type_106", "road_rank": "103", "road_class": "일반국도", "importance_score": 197.67836, "node_type": "106", "node_name": "쌍곡2교차로", "turn_p": "1"}}, {"type": "Feature", "geometry": {"type": "Point", "coordinates": [127.13711671594014, 37.044565565169194]}, "properties": {"node_id": "R016", "original_node_id": "2310014002", "x": 212197.86458379336, "y": 493967.54856991465, "degree": 8, "node_role": "anchor|named_interchange_or_intersection|branch|node_type_106", "road_rank": "101", "road_class": "고속국도/고속도로", "importance_score": 196.962522, "node_type": "106", "node_name": "안성JC(북측)", "turn_p": "0"}}, {"type": "Feature", "geometry": {"type": "Point", "coordinates": [128.66305825397893, 36.095711193171624]}, "properties": {"node_id": "R017", "original_node_id": "3610089902", "x": 349772.5582827997, "y": 389945.53142411116, "degree": 10, "node_role": "anchor|named_interchange_or_intersection|branch|node_type_106", "road_rank": "101", "road_class": "고속국도/고속도로", "importance_score": 196.544415, "node_type": "106", "node_name": "동군위IC", "turn_p": "1"}}, {"type": "Feature", "geometry": {"type": "Point", "coordinates": [128.24643740028336, 36.367406915229424]}, "properties": {"node_id": "R018", "original_node_id": "3580091902", "x": 311862.4365199174, "y": 419534.5607406352, "degree": 7, "node_role": "anchor|named_interchange_or_intersection|branch|node_type_106", "road_rank": "101", "road_class": "고속국도/고속도로", "importance_score": 196.403621, "node_type": "106", "node_name": "낙동JC", "turn_p": "0"}}, {"type": "Feature", "geometry": {"type": "Point", "coordinates": [128.21430362043102, 36.42003963998809]}, "properties": {"node_id": "R019", "original_node_id": "3580012301", "x": 308904.97719635145, "y": 425338.6836615097, "degree": 9, "node_role": "anchor|named_interchange_or_intersection|branch|node_type_106", "road_rank": "101", "road_class": "고속국도/고속도로", "importance_score": 195.78233, "node_type": "106", "node_name": "상주IC", "turn_p": "0"}}, {"type": "Feature", "geometry": {"type": "Point", "coordinates": [128.2130900295645, 36.4254156188043]}, "properties": {"node_id": "R020", "original_node_id": "3580013301", "x": 308788.6304454128, "y": 425933.9098428317, "degree": 9, "node_role": "anchor|named_interchange_or_intersection|branch|node_type_106", "road_rank": "101", "road_class": "고속국도/고속도로", "importance_score": 195.750873, "node_type": "106", "node_name": "상주IC", "turn_p": "0"}}, {"type": "Feature", "geometry": {"type": "Point", "coordinates": [128.17185273214872, 36.52854091633443]}, "properties": {"node_id": "R021", "original_node_id": "3580018901", "x": 304951.1849053276, "y": 437332.5024573379, "degree": 10, "node_role": "anchor|named_interchange_or_intersection|branch|node_type_106", "road_rank": "101", "road_class": "고속국도/고속도로", "importance_score": 195.749956, "node_type": "106", "node_name": "북상주IC", "turn_p": "0"}}, {"type": "Feature", "geometry": {"type": "Point", "coordinates": [127.09709381272272, 35.95029565949491]}, "properties": {"node_id": "R022", "original_node_id": "3080137502", "x": 208759.82767226192, "y": 372533.8876654077, "degree": 8, "node_role": "anchor|named_interchange_or_intersection|branch|node_type_106", "road_rank": "101", "road_class": "고속국도/고속도로", "importance_score": 195.637871, "node_type": "106", "node_name": "익산JC", "turn_p": "0"}}, {"type": "Feature", "geometry": {"type": "Point", "coordinates": [127.61838443505033, 36.98515029010112]}, "properties": {"node_id": "R023", "original_node_id": "2810025001", "x": 255054.43269907287, "y": 487543.71186233714, "degree": 6, "node_role": "anchor|named_interchange_or_intersection|branch|node_type_106", "road_rank": "101", "road_class": "고속국도/고속도로", "importance_score": 195.635515, "node_type": "106", "node_name": "음성IC교차로", "turn_p": "1"}}, {"type": "Feature", "geometry": {"type": "Point", "coordinates": [127.15334893688157, 36.99681521692905]}, "properties": {"node_id": "R024", "original_node_id": "2310003202", "x": 213650.4190408239, "y": 488670.50880353287, "degree": 8, "node_role": "anchor|named_interchange_or_intersection|branch|node_type_106", "road_rank": "101", "road_class": "고속국도/고속도로", "importance_score": 195.175262, "node_type": "106", "node_name": "안성IC(북측)", "turn_p": "1"}}, {"type": "Feature", "geometry": {"type": "Point", "coordinates": [127.14155342448895, 37.02625552092633]}, "properties": {"node_id": "R025", "original_node_id": "2140014601", "x": 212595.57689765512, "y": 491936.1073926271, "degree": 8, "node_role": "anchor|named_interchange_or_intersection|branch|node_type_106", "road_rank": "101", "road_class": "고속국도/고속도로", "importance_score": 195.165794, "node_type": "106", "node_name": "안성JC(남측)", "turn_p": "0"}}, {"type": "Feature", "geometry": {"type": "Point", "coordinates": [128.65628608036667, 35.91452991999719]}, "properties": {"node_id": "R026", "original_node_id": "1510018701", "x": 349504.38819015725, "y": 369828.79187693424, "degree": 7, "node_role": "anchor|named_interchange_or_intersection|branch|node_type_106", "road_rank": "101", "road_class": "고속국도/고속도로", "importance_score": 194.787784, "node_type": "106", "node_name": "도동JC", "turn_p": "1"}}, {"type": "Feature", "geometry": {"type": "Point", "coordinates": [128.11469744189978, 36.701291709495344]}, "properties": {"node_id": "R027", "original_node_id": "3590012601", "x": 299609.673438619, "y": 456442.98370796227, "degree": 8, "node_role": "anchor|named_interchange_or_intersection|branch|node_type_106", "road_rank": "101", "road_class": "고속국도/고속도로", "importance_score": 194.307199, "node_type": "106", "node_name": "문경새재IC", "turn_p": "0"}}, {"type": "Feature", "geometry": {"type": "Point", "coordinates": [128.8122665900332, 36.037132492257925]}, "properties": {"node_id": "R028", "original_node_id": "3570849602", "x": 363332.4615000002, "y": 383684.8080000002, "degree": 9, "node_role": "anchor|named_interchange_or_intersection|branch|node_type_106", "road_rank": "101", "road_class": "고속국도/고속도로", "importance_score": 193.927661, "node_type": "106", "node_name": "신녕IC교차로", "turn_p": "0"}}, {"type": "Feature", "geometry": {"type": "Point", "coordinates": [127.16747674491667, 36.82468230491583]}, "properties": {"node_id": "R029", "original_node_id": "3010090302", "x": 214941.54704240547, "y": 469569.9876671784, "degree": 10, "node_role": "anchor|named_interchange_or_intersection|branch|node_type_106", "road_rank": "101", "road_class": "고속국도/고속도로", "importance_score": 193.885122, "node_type": "106", "node_name": "천안IC", "turn_p": "0"}}, {"type": "Feature", "geometry": {"type": "Point", "coordinates": [128.8123989274965, 36.037146103651686]}, "properties": {"node_id": "R030", "original_node_id": "3570849601", "x": 363344.3616699905, "y": 383686.5405979268, "degree": 9, "node_role": "anchor|named_interchange_or_intersection|branch|node_type_106", "road_rank": "101", "road_class": "고속국도/고속도로", "importance_score": 193.770375, "node_type": "106", "node_name": "신녕IC교차로", "turn_p": "0"}}, {"type": "Feature", "geometry": {"type": "Point", "coordinates": [128.81041895096783, 36.041004458866375]}, "properties": {"node_id": "R031", "original_node_id": "3570849402", "x": 363157.9330000002, "y": 384111.40850000083, "degree": 8, "node_role": "anchor|named_interchange_or_intersection|branch|node_type_106", "road_rank": "101", "road_class": "고속국도/고속도로", "importance_score": 193.515052, "node_type": "106", "node_name": "신녕IC", "turn_p": "1"}}, {"type": "Feature", "geometry": {"type": "Point", "coordinates": [128.371503748106, 35.76045571960374]}, "properties": {"node_id": "R032", "original_node_id": "3670008501", "x": 324036.5136059894, "y": 352333.25136414816, "degree": 11, "node_role": "anchor|named_interchange_or_intersection|branch|node_type_106", "road_rank": "101", "road_class": "고속국도/고속도로", "importance_score": 193.382286, "node_type": "106", "node_name": "고령JC", "turn_p": "1"}}, {"type": "Feature", "geometry": {"type": "Point", "coordinates": [127.8356666129268, 36.26743629402015]}, "properties": {"node_id": "R033", "original_node_id": "2770102901", "x": 275092.37119999994, "y": 408043.7371999994, "degree": 7, "node_role": "anchor|named_interchange_or_intersection|branch|node_type_106", "road_rank": "101", "road_class": "고속국도/고속도로", "importance_score": 193.322862, "node_type": "106", "node_name": "영동IC(남측)", "turn_p": "0"}}, {"type": "Feature", "geometry": {"type": "Point", "coordinates": [127.90571718425967, 36.22183977626684]}, "properties": {"node_id": "R034", "original_node_id": "2770105201", "x": 281434.5081000002, "y": 403040.5862000007, "degree": 10, "node_role": "anchor|named_interchange_or_intersection|branch|node_type_106", "road_rank": "101", "road_class": "고속국도/고속도로", "importance_score": 193.318586, "node_type": "106", "node_name": "황간IC", "turn_p": "0"}}, {"type": "Feature", "geometry": {"type": "Point", "coordinates": [127.91206808205136, 36.22241443448485]}, "properties": {"node_id": "R035", "original_node_id": "2770105301", "x": 282004.9424112965, "y": 403109.707718928, "degree": 10, "node_role": "anchor|named_interchange_or_intersection|branch|node_type_106", "road_rank": "101", "road_class": "고속국도/고속도로", "importance_score": 193.305148, "node_type": "106", "node_name": "황간IC(동측)", "turn_p": "0"}}, {"type": "Feature", "geometry": {"type": "Point", "coordinates": [128.00113392216826, 36.20406739852911]}, "properties": {"node_id": "R036", "original_node_id": "3530109401", "x": 290034.1961999996, "y": 401152.7876999986, "degree": 10, "node_role": "anchor|named_interchange_or_intersection|branch|node_type_106", "road_rank": "101", "road_class": "고속국도/고속도로", "importance_score": 193.302705, "node_type": "106", "node_name": "추풍령IC(북측)", "turn_p": "0"}}, {"type": "Feature", "geometry": {"type": "Point", "coordinates": [128.09194786524031, 36.13390610667996]}, "properties": {"node_id": "R037", "original_node_id": "3530110501", "x": 298289.1648000004, "y": 393455.23420000076, "degree": 7, "node_role": "anchor|named_interchange_or_intersection|branch|node_type_106", "road_rank": "101", "road_class": "고속국도/고속도로", "importance_score": 193.296291, "node_type": "106", "node_name": "김천IC(서측)", "turn_p": "0"}}, {"type": "Feature", "geometry": {"type": "Point", "coordinates": [128.09497695771245, 36.12777156428802]}, "properties": {"node_id": "R038", "original_node_id": "3530110802", "x": 298569.5035050715, "y": 392777.56726981193, "degree": 8, "node_role": "anchor|named_interchange_or_intersection|branch|node_type_106", "road_rank": "101", "road_class": "고속국도/고속도로", "importance_score": 192.455061, "node_type": "106", "node_name": "김천IC앞", "turn_p": "1"}}, {"type": "Feature", "geometry": {"type": "Point", "coordinates": [128.43569674515243, 35.66807515794538]}, "properties": {"node_id": "R039", "original_node_id": "1570012601", "x": 329992.3765171835, "y": 342165.3864129403, "degree": 8, "node_role": "anchor|named_interchange_or_intersection|branch|node_type_106", "road_rank": "101", "road_class": "고속국도/고속도로", "importance_score": 191.788569, "node_type": "106", "node_name": "현풍JC", "turn_p": "0"}}, {"type": "Feature", "geometry": {"type": "Point", "coordinates": [127.43492860234083, 37.08088076253459]}, "properties": {"node_id": "R040", "original_node_id": "2310020305", "x": 238672.7804629561, "y": 498077.4748953468, "degree": 5, "node_role": "anchor|named_interchange_or_intersection|branch|node_type_106", "road_rank": "101", "road_class": "고속국도/고속도로", "importance_score": 191.7137, "node_type": "106", "node_name": "죽산교차로", "turn_p": "0"}}, {"type": "Feature", "geometry": {"type": "Point", "coordinates": [127.99891954383452, 36.757268958169774]}, "properties": {"node_id": "R041", "original_node_id": "2800135901", "x": 289198.6308741616, "y": 462541.13040261413, "degree": 8, "node_role": "anchor|named_interchange_or_intersection|branch|node_type_106", "road_rank": "101", "road_class": "고속국도/고속도로", "importance_score": 189.960558, "node_type": "106", "node_name": "연풍IC교차로", "turn_p": "0"}}, {"type": "Feature", "geometry": {"type": "Point", "coordinates": [127.97719819973524, 36.758854739149655]}, "properties": {"node_id": "R042", "original_node_id": "2800135601", "x": 287257.17019058287, "y": 462697.0978597113, "degree": 10, "node_role": "anchor|named_interchange_or_intersection|branch|node_type_106", "road_rank": "101", "road_class": "고속국도/고속도로", "importance_score": 189.950175, "node_type": "106", "node_name": "적석교차로", "turn_p": "0"}}, {"type": "Feature", "geometry": {"type": "Point", "coordinates": [127.8122716647325, 36.80936725558232]}, "properties": {"node_id": "R043", "original_node_id": "2800132202", "x": 272482.4474396204, "y": 468165.17204091046, "degree": 8, "node_role": "anchor|named_interchange_or_intersection|branch|node_type_106", "road_rank": "103", "road_class": "일반국도", "importance_score": 189.855192, "node_type": "106", "node_name": "동진교차로", "turn_p": "0"}}, {"type": "Feature", "geometry": {"type": "Point", "coordinates": [127.82546871001632, 36.8035336902271]}, "properties": {"node_id": "R044", "original_node_id": "2800132307", "x": 273665.68718462565, "y": 467527.8637574119, "degree": 9, "node_role": "anchor|named_interchange_or_intersection|branch|node_type_106", "road_rank": "103", "road_class": "일반국도", "importance_score": 189.852443, "node_type": "106", "node_name": "검승교차로", "turn_p": "0"}}, {"type": "Feature", "geometry": {"type": "Point", "coordinates": [127.85404600586614, 36.79060653128961]}, "properties": {"node_id": "R045", "original_node_id": "2800133002", "x": 276228.8175545663, "y": 466115.63608056394, "degree": 11, "node_role": "anchor|named_interchange_or_intersection|branch|node_type_106", "road_rank": "103", "road_class": "일반국도", "importance_score": 189.846946, "node_type": "106", "node_name": "칠성교차로", "turn_p": "0"}}, {"type": "Feature", "geometry": {"type": "Point", "coordinates": [127.81214566885461, 36.80938374915422]}, "properties": {"node_id": "R046", "original_node_id": "2800132203", "x": 272471.18853200995, "y": 468166.9069508184, "degree": 8, "node_role": "anchor|named_interchange_or_intersection|branch|node_type_106", "road_rank": "103", "road_class": "일반국도", "importance_score": 189.845419, "node_type": "106", "node_name": "동진교차로", "turn_p": "0"}}, {"type": "Feature", "geometry": {"type": "Point", "coordinates": [127.8481301918743, 36.79244212733117]}, "properties": {"node_id": "R047", "original_node_id": "2800132702", "x": 275698.9779159677, "y": 466314.64760753734, "degree": 11, "node_role": "anchor|named_interchange_or_intersection|branch|node_type_106", "road_rank": "103", "road_class": "일반국도", "importance_score": 189.844808, "node_type": "106", "node_name": "칠성교차로", "turn_p": "0"}}, {"type": "Feature", "geometry": {"type": "Point", "coordinates": [127.88209696018058, 36.78177620710401]}, "properties": {"node_id": "R048", "original_node_id": "2800133307", "x": 278741.6272706515, "y": 465158.38981107855, "degree": 10, "node_role": "anchor|named_interchange_or_intersection|branch|node_type_106", "road_rank": "103", "road_class": "일반국도", "importance_score": 189.84267, "node_type": "106", "node_name": "쌍곡1교차로", "turn_p": "0"}}, {"type": "Feature", "geometry": {"type": "Point", "coordinates": [127.10180372261796, 36.076008354314524]}, "properties": {"node_id": "R049", "original_node_id": "3080140302", "x": 209170.18433596566, "y": 386483.3131880316, "degree": 7, "node_role": "anchor|named_interchange_or_intersection|branch|node_type_106", "road_rank": "101", "road_class": "고속국도/고속도로", "importance_score": 189.073386, "node_type": "106", "node_name": "논산JC", "turn_p": "0"}}, {"type": "Feature", "geometry": {"type": "Point", "coordinates": [127.11331312823566, 35.994484221169145]}, "properties": {"node_id": "R050", "original_node_id": "3120019302", "x": 210217.44300366865, "y": 377438.56410601444, "degree": 7, "node_role": "anchor|named_interchange_or_intersection|branch|node_type_106", "road_rank": "101", "road_class": "고속국도/고속도로", "importance_score": 189.07308, "node_type": "106", "node_name": "익산IC(북측)", "turn_p": "0"}}, {"type": "Feature", "geometry": {"type": "Point", "coordinates": [128.8078888691198, 36.04368929724763]}, "properties": {"node_id": "R051", "original_node_id": "3570849202", "x": 362924.3607916311, "y": 384405.1256928821, "degree": 9, "node_role": "anchor|named_interchange_or_intersection|branch|node_type_106", "road_rank": "101", "road_class": "고속국도/고속도로", "importance_score": 188.527312, "node_type": "106", "node_name": "신녕IC", "turn_p": "0"}}, {"type": "Feature", "geometry": {"type": "Point", "coordinates": [128.26923678586823, 36.37524463790464]}, "properties": {"node_id": "R052", "original_node_id": "3580108301", "x": 313897.2554352656, "y": 420430.98592862627, "degree": 8, "node_role": "anchor|named_interchange_or_intersection|branch|node_type_106", "road_rank": "101", "road_class": "고속국도/고속도로", "importance_score": 188.399346, "node_type": "106", "node_name": "상주JC", "turn_p": "0"}}, {"type": "Feature", "geometry": {"type": "Point", "coordinates": [128.52223962084247, 35.853319915517204]}, "properties": {"node_id": "R053", "original_node_id": "1560004001", "x": 337509.5736049871, "y": 362839.432770216, "degree": 9, "node_role": "anchor|named_interchange_or_intersection|branch|node_type_106", "road_rank": "101", "road_class": "고속국도/고속도로", "importance_score": 187.898037, "node_type": "106", "node_name": "성서IC", "turn_p": "1"}}, {"type": "Feature", "geometry": {"type": "Point", "coordinates": [127.17253483995457, 36.83117832373901]}, "properties": {"node_id": "R054", "original_node_id": "3010092701", "x": 215391.50744586883, "y": 470291.68305491493, "degree": 10, "node_role": "anchor|named_interchange_or_intersection|branch|node_type_106", "road_rank": "101", "road_class": "고속국도/고속도로", "importance_score": 187.305977, "node_type": "106", "node_name": "천안IC", "turn_p": "0"}}, {"type": "Feature", "geometry": {"type": "Point", "coordinates": [127.18927470295873, 36.895280943952415]}, "properties": {"node_id": "R055", "original_node_id": "3020169301", "x": 216870.74251317474, "y": 477408.31396960886, "degree": 13, "node_role": "anchor|named_interchange_or_intersection|branch|node_type_106", "road_rank": "101", "road_class": "고속국도/고속도로", "importance_score": 187.300785, "node_type": "106", "node_name": "북천안IC", "turn_p": "0"}}, {"type": "Feature", "geometry": {"type": "Point", "coordinates": [127.18924093533235, 36.900070890564024]}, "properties": {"node_id": "R056", "original_node_id": "3020169201", "x": 216866.67857047482, "y": 477939.87661837734, "degree": 11, "node_role": "anchor|named_interchange_or_intersection|branch|node_type_106", "road_rank": "101", "road_class": "고속국도/고속도로", "importance_score": 187.254363, "node_type": "106", "node_name": "북천안IC", "turn_p": "0"}}, {"type": "Feature", "geometry": {"type": "Point", "coordinates": [127.15532540999399, 36.99165762951289]}, "properties": {"node_id": "R057", "original_node_id": "2310002701", "x": 213827.28943325175, "y": 488098.41707504925, "degree": 8, "node_role": "anchor|named_interchange_or_intersection|branch|node_type_106", "road_rank": "101", "road_class": "고속국도/고속도로", "importance_score": 187.246422, "node_type": "106", "node_name": "안성IC(남측)", "turn_p": "0"}}, {"type": "Feature", "geometry": {"type": "Point", "coordinates": [127.08942967778486, 36.48115389964531]}, "properties": {"node_id": "R058", "original_node_id": "2860033802", "x": 208014.0454132532, "y": 431438.8754537599, "degree": 8, "node_role": "anchor|named_interchange_or_intersection|branch|node_type_106", "road_rank": "101", "road_class": "고속국도/고속도로", "importance_score": 187.093281, "node_type": "106", "node_name": "공주분기점", "turn_p": "1"}}, {"type": "Feature", "geometry": {"type": "Point", "coordinates": [127.10406750226373, 36.50309975944489]}, "properties": {"node_id": "R059", "original_node_id": "2860036101", "x": 209323.15192935773, "y": 433875.48501749756, "degree": 7, "node_role": "anchor|named_interchange_or_intersection|branch|node_type_106", "road_rank": "101", "road_class": "고속국도/고속도로", "importance_score": 186.922775, "node_type": "106", "node_name": "공주IC", "turn_p": "1"}}, {"type": "Feature", "geometry": {"type": "Point", "coordinates": [128.52784005726662, 35.83797038788472]}, "properties": {"node_id": "R060", "original_node_id": "1560001601", "x": 338042.12447116774, "y": 361144.00601286336, "degree": 9, "node_role": "anchor|named_interchange_or_intersection|branch|node_type_106", "road_rank": "101", "road_class": "고속국도/고속도로", "importance_score": 185.939049, "node_type": "106", "node_name": "남대구IC", "turn_p": "1"}}, {"type": "Feature", "geometry": {"type": "Point", "coordinates": [128.52490596997052, 35.845166500387904]}, "properties": {"node_id": "R061", "original_node_id": "1560001704", "x": 337764.55888903834, "y": 361938.41178887145, "degree": 9, "node_role": "anchor|named_interchange_or_intersection|branch|node_type_106", "road_rank": "101", "road_class": "고속국도/고속도로", "importance_score": 185.939049, "node_type": "106", "node_name": "성서IC", "turn_p": "0"}}, {"type": "Feature", "geometry": {"type": "Point", "coordinates": [128.50258609121877, 35.811905393436476]}, "properties": {"node_id": "R062", "original_node_id": "1570186101", "x": 335804.639719393, "y": 358216.28847299283, "degree": 10, "node_role": "anchor|named_interchange_or_intersection|branch|node_type_106", "road_rank": "101", "road_class": "고속국도/고속도로", "importance_score": 185.922557, "node_type": "106", "node_name": "유천IC(남측)", "turn_p": "1"}}, {"type": "Feature", "geometry": {"type": "Point", "coordinates": [127.13777413474156, 36.721445942406376]}, "properties": {"node_id": "R063", "original_node_id": "3010051801", "x": 212308.09951453423, "y": 458109.2577226642, "degree": 9, "node_role": "anchor|named_interchange_or_intersection|branch|node_type_106", "road_rank": "101", "road_class": "고속국도/고속도로", "importance_score": 185.90781, "node_type": "106", "node_name": "남풍세IC", "turn_p": "0"}}, {"type": "Feature", "geometry": {"type": "Point", "coordinates": [127.12047259950452, 36.62790401893978]}, "properties": {"node_id": "R064", "original_node_id": "2860027301", "x": 210775.49657666066, "y": 447726.6755803272, "degree": 10, "node_role": "anchor|named_interchange_or_intersection|branch|node_type_106", "road_rank": "101", "road_class": "고속국도/고속도로", "importance_score": 185.90445, "node_type": "106", "node_name": "정안IC", "turn_p": "0"}}, {"type": "Feature", "geometry": {"type": "Point", "coordinates": [128.32042943508785, 36.31590743018555]}, "properties": {"node_id": "R065", "original_node_id": "3550145701", "x": 318581.31299982744, "y": 413907.66750833037, "degree": 6, "node_role": "anchor|named_interchange_or_intersection|branch|node_type_106", "road_rank": "101", "road_class": "고속국도/고속도로", "importance_score": 185.764049, "node_type": "106", "node_name": "도개IC", "turn_p": "1"}}, {"type": "Feature", "geometry": {"type": "Point", "coordinates": [127.47553770998927, 36.86651440683902]}, "properties": {"node_id": "R066", "original_node_id": "2790006802", "x": 242402.42274271636, "y": 474304.7774691573, "degree": 3, "node_role": "anchor|named_interchange_or_intersection|branch|node_type_106", "road_rank": "101", "road_class": "고속국도/고속도로", "importance_score": 185.606763, "node_type": "106", "node_name": "진천IC", "turn_p": "1"}}, {"type": "Feature", "geometry": {"type": "Point", "coordinates": [128.8155938056297, 36.03722256851519]}, "properties": {"node_id": "R067", "original_node_id": "3570849902", "x": 363632.17507103464, "y": 383700.39200833184, "degree": 8, "node_role": "anchor|named_interchange_or_intersection|branch|node_type_106", "road_rank": "101", "road_class": "고속국도/고속도로", "importance_score": 185.383115, "node_type": "106", "node_name": "신녕IC교차로", "turn_p": "0"}}, {"type": "Feature", "geometry": {"type": "Point", "coordinates": [127.08415106332905, 35.939474223747574]}, "properties": {"node_id": "R068", "original_node_id": "3080137402", "x": 207593.16455336378, "y": 371332.0783295891, "degree": 7, "node_role": "anchor|named_interchange_or_intersection|branch|node_type_106", "road_rank": "101", "road_class": "고속국도/고속도로", "importance_score": 185.140707, "node_type": "106", "node_name": "익산JC", "turn_p": "1"}}, {"type": "Feature", "geometry": {"type": "Point", "coordinates": [127.0776690782043, 35.92333707395921]}, "properties": {"node_id": "R069", "original_node_id": "3080002102", "x": 207009.7027620178, "y": 369541.0515371968, "degree": 7, "node_role": "anchor|named_interchange_or_intersection|branch|node_type_106", "road_rank": "101", "road_class": "고속국도/고속도로", "importance_score": 185.086344, "node_type": "106", "node_name": "삼례IC(남측)", "turn_p": "1"}}, {"type": "Feature", "geometry": {"type": "Point", "coordinates": [127.08957278790484, 36.48110517556175]}, "properties": {"node_id": "R070", "original_node_id": "2860033801", "x": 208026.87494305213, "y": 431433.4805512461, "degree": 7, "node_role": "anchor|named_interchange_or_intersection|branch|node_type_106", "road_rank": "101", "road_class": "고속국도/고속도로", "importance_score": 184.850262, "node_type": "106", "node_name": "공주분기점", "turn_p": "0"}}, {"type": "Feature", "geometry": {"type": "Point", "coordinates": [128.4779727167241, 36.24747862368556]}, "properties": {"node_id": "R071", "original_node_id": "3610090301", "x": 332846.3441169831, "y": 406518.43058699014, "degree": 6, "node_role": "anchor|named_interchange_or_intersection|branch|node_type_106", "road_rank": "101", "road_class": "고속국도/고속도로", "importance_score": 184.848124, "node_type": "106", "node_name": "서군위하이패스IC", "turn_p": "1"}}, {"type": "Feature", "geometry": {"type": "Point", "coordinates": [127.07978491665965, 36.42916959662197]}, "properties": {"node_id": "R072", "original_node_id": "2860011301", "x": 207154.52404941444, "y": 425669.5488892941, "degree": 8, "node_role": "anchor|named_interchange_or_intersection|branch|node_type_106", "road_rank": "101", "road_class": "고속국도/고속도로", "importance_score": 184.846597, "node_type": "106", "node_name": "남공주IC", "turn_p": "1"}}, {"type": "Feature", "geometry": {"type": "Point", "coordinates": [128.65900089660275, 36.099347982050396]}, "properties": {"node_id": "R073", "original_node_id": "3610089501", "x": 349400.24023899814, "y": 390342.8815788615, "degree": 9, "node_role": "anchor|named_interchange_or_intersection|branch|node_type_106", "road_rank": "101", "road_class": "고속국도/고속도로", "importance_score": 184.806588, "node_type": "106", "node_name": "동군위IC", "turn_p": "1"}}, {"type": "Feature", "geometry": {"type": "Point", "coordinates": [127.16785233970874, 36.824536638007295]}, "properties": {"node_id": "R074", "original_node_id": "3010090301", "x": 214975.08438863175, "y": 469553.881128362, "degree": 10, "node_role": "anchor|named_interchange_or_intersection|branch|node_type_106", "road_rank": "101", "road_class": "고속국도/고속도로", "importance_score": 184.763133, "node_type": "106", "node_name": "천안IC", "turn_p": "0"}}, {"type": "Feature", "geometry": {"type": "Point", "coordinates": [127.42441195522237, 36.59318974308798]}, "properties": {"node_id": "R075", "original_node_id": "2830014701", "x": 237978.02139999997, "y": 443951.51300000027, "degree": 7, "node_role": "anchor|named_interchange_or_intersection|branch|node_type_106", "road_rank": "101", "road_class": "고속국도/고속도로", "importance_score": 184.681283, "node_type": "106", "node_name": "남이JC", "turn_p": "0"}}, {"type": "Feature", "geometry": {"type": "Point", "coordinates": [127.42900343015955, 36.570282003099216]}, "properties": {"node_id": "R076", "original_node_id": "2830018301", "x": 238400.23039999977, "y": 441411.2485000007, "degree": 8, "node_role": "anchor|named_interchange_or_intersection|branch|node_type_106", "road_rank": "101", "road_class": "고속국도/고속도로", "importance_score": 184.659599, "node_type": "106", "node_name": "청주JC", "turn_p": "0"}}, {"type": "Feature", "geometry": {"type": "Point", "coordinates": [127.62209645787576, 36.97944820754422]}, "properties": {"node_id": "R077", "original_node_id": "2810024701", "x": 255389.04914353305, "y": 486913.05204260483, "degree": 6, "node_role": "anchor|named_interchange_or_intersection|branch|node_type_106", "road_rank": "101", "road_class": "고속국도/고속도로", "importance_score": 184.400305, "node_type": "106", "node_name": "음성IC교차로", "turn_p": "0"}}, {"type": "Feature", "geometry": {"type": "Point", "coordinates": [127.4509877002837, 37.0863332160685]}, "properties": {"node_id": "R078", "original_node_id": "2310021213", "x": 240097.8518516014, "y": 498689.2453808157, "degree": 6, "node_role": "anchor|named_interchange_or_intersection|branch|node_type_106", "road_rank": "101", "road_class": "고속국도/고속도로", "importance_score": 184.046946, "node_type": "106", "node_name": "일죽IC삼거리", "turn_p": "0"}}, {"type": "Feature", "geometry": {"type": "Point", "coordinates": [127.4508827427588, 37.086297963851386]}, "properties": {"node_id": "R079", "original_node_id": "2310021214", "x": 240088.5384661103, "y": 498685.28879271867, "degree": 6, "node_role": "anchor|named_interchange_or_intersection|branch|node_type_106", "road_rank": "101", "road_class": "고속국도/고속도로", "importance_score": 184.045113, "node_type": "106", "node_name": "일죽IC삼거리", "turn_p": "0"}}, {"type": "Feature", "geometry": {"type": "Point", "coordinates": [127.17749092910873, 36.774983964681795]}, "properties": {"node_id": "R080", "original_node_id": "3010095602", "x": 215845.20416157713, "y": 464056.3737961002, "degree": 11, "node_role": "anchor|named_interchange_or_intersection|branch|node_type_101", "road_rank": "101", "road_class": "고속국도/고속도로", "importance_score": 183.882984, "node_type": "101", "node_name": "천안JC", "turn_p": "0"}}, {"type": "Feature", "geometry": {"type": "Point", "coordinates": [128.476040101969, 35.54629721838311]}, "properties": {"node_id": "R081", "original_node_id": "3910015901", "x": 333848.17233195156, "y": 328706.5920362724, "degree": 4, "node_role": "anchor|named_interchange_or_intersection|branch|node_type_106", "road_rank": "101", "road_class": "고속국도/고속도로", "importance_score": 183.776047, "node_type": "106", "node_name": "창녕IC", "turn_p": "1"}}, {"type": "Feature", "geometry": {"type": "Point", "coordinates": [128.4763137956636, 35.54473785760539]}, "properties": {"node_id": "R082", "original_node_id": "3910146600", "x": 333875.5853000004, "y": 328533.9331, "degree": 4, "node_role": "anchor|named_interchange_or_intersection|branch|node_type_106", "road_rank": "101", "road_class": "고속국도/고속도로", "importance_score": 183.770244, "node_type": "106", "node_name": "창녕IC(북측)", "turn_p": "0"}}, {"type": "Feature", "geometry": {"type": "Point", "coordinates": [126.79807695384707, 36.01235071106646]}, "properties": {"node_id": "R083", "original_node_id": "3070024802", "x": 181796.70100000035, "y": 379433.93480000086, "degree": 3, "node_role": "anchor|named_interchange_or_intersection|branch|node_type_106", "road_rank": "101", "road_class": "고속국도/고속도로", "importance_score": 183.120812, "node_type": "106", "node_name": "군산IC(북측)", "turn_p": "1"}}, {"type": "Feature", "geometry": {"type": "Point", "coordinates": [127.11351881733802, 35.99450424325771]}, "properties": {"node_id": "R084", "original_node_id": "3120019301", "x": 210235.98740748895, "y": 377440.8073130559, "degree": 7, "node_role": "anchor|named_interchange_or_intersection|branch|node_type_106", "road_rank": "101", "road_class": "고속국도/고속도로", "importance_score": 183.09904, "node_type": "106", "node_name": "익산IC(북측)", "turn_p": "1"}}, {"type": "Feature", "geometry": {"type": "Point", "coordinates": [127.09840965710806, 37.40228328532088]}, "properties": {"node_id": "R085", "original_node_id": "2060004901", "x": 208713.24581695703, "y": 533663.4699006402, "degree": 3, "node_role": "anchor|named_interchange_or_intersection|branch|node_type_106", "road_rank": "101", "road_class": "고속국도/고속도로", "importance_score": 183.042408, "node_type": "106", "node_name": "판교JC(남측)", "turn_p": "1"}}, {"type": "Feature", "geometry": {"type": "Point", "coordinates": [128.6606822273939, 36.09736435149866]}, "properties": {"node_id": "R086", "original_node_id": "3610089602", "x": 349555.4247000003, "y": 390125.3331000004, "degree": 9, "node_role": "anchor|named_interchange_or_intersection|branch|node_type_106", "road_rank": "101", "road_class": "고속국도/고속도로", "importance_score": 182.641841, "node_type": "106", "node_name": "동군위IC", "turn_p": "1"}}, {"type": "Feature", "geometry": {"type": "Point", "coordinates": [127.44174744651171, 36.713655279370926]}, "properties": {"node_id": "R087", "original_node_id": "2840034002", "x": 239467.74628378492, "y": 457326.8183750924, "degree": 7, "node_role": "anchor|named_interchange_or_intersection|branch|node_type_106", "road_rank": "101", "road_class": "고속국도/고속도로", "importance_score": 182.558464, "node_type": "106", "node_name": "오창IC", "turn_p": "1"}}, {"type": "Feature", "geometry": {"type": "Point", "coordinates": [127.16430365467825, 36.75088222720619]}, "properties": {"node_id": "R088", "original_node_id": "3010088002", "x": 214672.5219670693, "y": 461379.6213664826, "degree": 9, "node_role": "anchor|named_interchange_or_intersection|branch|node_type_106", "road_rank": "101", "road_class": "고속국도/고속도로", "importance_score": 182.505934, "node_type": "106", "node_name": "남천안IC", "turn_p": "1"}}, {"type": "Feature", "geometry": {"type": "Point", "coordinates": [127.6926537116851, 36.913632626933364]}, "properties": {"node_id": "R089", "original_node_id": "2810938004", "x": 261724.3509540966, "y": 479652.26951118896, "degree": 9, "node_role": "anchor|named_interchange_or_intersection|branch|node_type_106", "road_rank": "103", "road_class": "일반국도", "importance_score": 182.254625, "node_type": "106", "node_name": "음성１교차로", "turn_p": "1"}}, {"type": "Feature", "geometry": {"type": "Point", "coordinates": [127.38388435605037, 36.62478912134431]}, "properties": {"node_id": "R090", "original_node_id": "2710003402", "x": 234337.42739911212, "y": 447442.8795706142, "degree": 8, "node_role": "anchor|named_interchange_or_intersection|branch|node_type_106", "road_rank": "101", "road_class": "고속국도/고속도로", "importance_score": 182.146161, "node_type": "106", "node_name": "청주IC", "turn_p": "1"}}, {"type": "Feature", "geometry": {"type": "Point", "coordinates": [128.98350460601972, 35.25383371422928]}, "properties": {"node_id": "R091", "original_node_id": "3850319702", "x": 380521.69438538974, "y": 297059.9386379209, "degree": 5, "node_role": "anchor|named_interchange_or_intersection|branch|node_type_106", "road_rank": "101", "road_class": "고속국도/고속도로", "importance_score": 181.994459, "node_type": "106", "node_name": "대동IC", "turn_p": "1"}}, {"type": "Feature", "geometry": {"type": "Point", "coordinates": [127.13689314928646, 37.0445467306126]}, "properties": {"node_id": "R092", "original_node_id": "2310014003", "x": 212177.9791551202, "y": 493965.42968775786, "degree": 9, "node_role": "anchor|named_interchange_or_intersection|branch|node_type_106", "road_rank": "101", "road_class": "고속국도/고속도로", "importance_score": 181.989791, "node_type": "106", "node_name": "안성JC(북측)", "turn_p": "0"}}, {"type": "Feature", "geometry": {"type": "Point", "coordinates": [127.21852144999137, 36.75843654649878]}, "properties": {"node_id": "R093", "original_node_id": "3010104002", "x": 219512.3315828183, "y": 462227.6271799497, "degree": 9, "node_role": "anchor|named_interchange_or_intersection|branch|node_type_106", "road_rank": "101", "road_class": "고속국도/고속도로", "importance_score": 181.523429, "node_type": "106", "node_name": "목천IC", "turn_p": "1"}}, {"type": "Feature", "geometry": {"type": "Point", "coordinates": [128.37416793768057, 35.75505980774519]}, "properties": {"node_id": "R094", "original_node_id": "3670008201", "x": 324285.8664989119, "y": 351737.87017173175, "degree": 11, "node_role": "anchor|named_interchange_or_intersection|branch|node_type_106", "road_rank": "101", "road_class": "고속국도/고속도로", "importance_score": 181.287871, "node_type": "106", "node_name": "고령JC", "turn_p": "0"}}, {"type": "Feature", "geometry": {"type": "Point", "coordinates": [128.4324343977203, 35.6798480647156]}, "properties": {"node_id": "R095", "original_node_id": "1570012901", "x": 329677.9232000001, "y": 343467.4450000003, "degree": 8, "node_role": "anchor|named_interchange_or_intersection|branch|node_type_106", "road_rank": "101", "road_class": "고속국도/고속도로", "importance_score": 181.275349, "node_type": "106", "node_name": "현풍JC", "turn_p": "0"}}, {"type": "Feature", "geometry": {"type": "Point", "coordinates": [127.5105373560586, 36.52847329115303]}, "properties": {"node_id": "R096", "original_node_id": "2700132602", "x": 245723.0292543095, "y": 436807.3672561521, "degree": 7, "node_role": "anchor|named_interchange_or_intersection|branch|node_type_106", "road_rank": "101", "road_class": "고속국도/고속도로", "importance_score": 180.826789, "node_type": "106", "node_name": "문의IC", "turn_p": "1"}}, {"type": "Feature", "geometry": {"type": "Point", "coordinates": [128.4793195605694, 35.53926406679254]}, "properties": {"node_id": "R097", "original_node_id": "3910014401", "x": 334157.29291079874, "y": 327930.63510021917, "degree": 5, "node_role": "anchor|named_interchange_or_intersection|branch|node_type_106", "road_rank": "101", "road_class": "고속국도/고속도로", "importance_score": 180.575349, "node_type": "106", "node_name": "창녕IC사거리", "turn_p": "0"}}, {"type": "Feature", "geometry": {"type": "Point", "coordinates": [127.18906244900802, 36.895279389247065]}, "properties": {"node_id": "R098", "original_node_id": "3020169302", "x": 216851.8238691815, "y": 477408.10393466894, "degree": 13, "node_role": "anchor|named_interchange_or_intersection|branch|node_type_106", "road_rank": "101", "road_class": "고속국도/고속도로", "importance_score": 180.333857, "node_type": "106", "node_name": "북천안IC", "turn_p": "1"}}, {"type": "Feature", "geometry": {"type": "Point", "coordinates": [127.825089052218, 36.270948842584]}, "properties": {"node_id": "R099", "original_node_id": "2770018302", "x": 274138.538768128, "y": 408425.36627272435, "degree": 8, "node_role": "anchor|named_interchange_or_intersection|branch|node_type_106", "road_rank": "101", "road_class": "고속국도/고속도로", "importance_score": 180.332941, "node_type": "106", "node_name": "상용사거리", "turn_p": "0"}}, {"type": "Feature", "geometry": {"type": "Point", "coordinates": [127.82502461491816, 36.27103719342889]}, "properties": {"node_id": "R100", "original_node_id": "2770018301", "x": 274132.6650963861, "y": 408435.1210163225, "degree": 8, "node_role": "anchor|named_interchange_or_intersection|branch|node_type_106", "road_rank": "101", "road_class": "고속국도/고속도로", "importance_score": 180.275218, "node_type": "106", "node_name": "상용사거리", "turn_p": "0"}}, {"type": "Feature", "geometry": {"type": "Point", "coordinates": [127.15511222639391, 36.99160019161688]}, "properties": {"node_id": "R101", "original_node_id": "2310002702", "x": 213808.321895666, "y": 488092.01182024647, "degree": 8, "node_role": "anchor|named_interchange_or_intersection|branch|node_type_106", "road_rank": "101", "road_class": "고속국도/고속도로", "importance_score": 180.193674, "node_type": "106", "node_name": "안성IC(남측)", "turn_p": "1"}}, {"type": "Feature", "geometry": {"type": "Point", "coordinates": [128.53153679105526, 35.87367675495891]}, "properties": {"node_id": "R102", "original_node_id": "1520000901", "x": 338314.10032504203, "y": 365111.52425054566, "degree": 8, "node_role": "anchor|named_interchange_or_intersection|branch|node_type_106", "road_rank": "101", "road_class": "고속국도/고속도로", "importance_score": 179.924913, "node_type": "106", "node_name": "서대구IC", "turn_p": "0"}}, {"type": "Feature", "geometry": {"type": "Point", "coordinates": [128.58304631899114, 35.90957144571069]}, "properties": {"node_id": "R103", "original_node_id": "1540004302", "x": 342901.7912817047, "y": 369168.88699246367, "degree": 8, "node_role": "anchor|named_interchange_or_intersection|branch|node_type_106", "road_rank": "101", "road_class": "고속국도/고속도로", "importance_score": 178.93041, "node_type": "106", "node_name": "북대구IC", "turn_p": "0"}}, {"type": "Feature", "geometry": {"type": "Point", "coordinates": [127.12040849017458, 36.621810251252136]}, "properties": {"node_id": "R104", "original_node_id": "2860027001", "x": 210770.6102075624, "y": 447050.4387444501, "degree": 10, "node_role": "anchor|named_interchange_or_intersection|branch|node_type_106", "road_rank": "101", "road_class": "고속국도/고속도로", "importance_score": 178.91575, "node_type": "106", "node_name": "정안IC", "turn_p": "0"}}, {"type": "Feature", "geometry": {"type": "Point", "coordinates": [127.09393530160665, 36.48951625889332]}, "properties": {"node_id": "R105", "original_node_id": "2860035001", "x": 208416.90253436466, "y": 432367.21442714357, "degree": 7, "node_role": "anchor|named_interchange_or_intersection|branch|node_type_106", "road_rank": "101", "road_class": "고속국도/고속도로", "importance_score": 178.883377, "node_type": "106", "node_name": "공주JC", "turn_p": "0"}}, {"type": "Feature", "geometry": {"type": "Point", "coordinates": [127.43079436015589, 36.53714634670873]}, "properties": {"node_id": "R106", "original_node_id": "2830019901", "x": 238577.0042417993, "y": 437734.8941518181, "degree": 8, "node_role": "anchor|named_interchange_or_intersection|branch|node_type_106", "road_rank": "101", "road_class": "고속국도/고속도로", "importance_score": 178.375262, "node_type": "106", "node_name": "남청주IC", "turn_p": "1"}}, {"type": "Feature", "geometry": {"type": "Point", "coordinates": [128.52718209707837, 35.8361192513152]}, "properties": {"node_id": "R107", "original_node_id": "1560001301", "x": 337985.87898108485, "y": 360937.6599620428, "degree": 11, "node_role": "anchor|named_interchange_or_intersection|branch|node_type_106", "road_rank": "101", "road_class": "고속국도/고속도로", "importance_score": 177.93233, "node_type": "106", "node_name": "남대구IC", "turn_p": "0"}}, {"type": "Feature", "geometry": {"type": "Point", "coordinates": [127.05212063149696, 36.22199492573471]}, "properties": {"node_id": "R108", "original_node_id": "2900015502", "x": 204686.18243871597, "y": 402678.70304987766, "degree": 3, "node_role": "anchor|named_interchange_or_intersection|branch|node_type_106", "road_rank": "101", "road_class": "고속국도/고속도로", "importance_score": 177.418935, "node_type": "106", "node_name": "서논산IC", "turn_p": "0"}}, {"type": "Feature", "geometry": {"type": "Point", "coordinates": [128.24582184137216, 35.922897465510324]}, "properties": {"node_id": "R109", "original_node_id": "3680012801", "x": 312439.9164282954, "y": 370206.74660494097, "degree": 3, "node_role": "anchor|named_interchange_or_intersection|branch|node_type_106", "road_rank": "101", "road_class": "고속국도/고속도로", "importance_score": 177.106806, "node_type": "106", "node_name": "성주IC", "turn_p": "0"}}, {"type": "Feature", "geometry": {"type": "Point", "coordinates": [127.0261057159435, 35.80795260382436]}, "properties": {"node_id": "R110", "original_node_id": "3120945000", "x": 202359.4813135119, "y": 356735.92017996043, "degree": 8, "node_role": "anchor|named_interchange_or_intersection|branch|node_type_106", "road_rank": "101", "road_class": "고속국도/고속도로", "importance_score": 177.020768, "node_type": "106", "node_name": "이서JC", "turn_p": "0"}}, {"type": "Feature", "geometry": {"type": "Point", "coordinates": [128.56548207759613, 36.16139107009317]}, "properties": {"node_id": "R111", "original_node_id": "3610088801", "x": 340866.8490166323, "y": 397088.38705283124, "degree": 4, "node_role": "anchor|named_interchange_or_intersection|branch|node_type_106", "road_rank": "101", "road_class": "고속국도/고속도로", "importance_score": 176.847818, "node_type": "106", "node_name": "군위JC", "turn_p": "0"}}, {"type": "Feature", "geometry": {"type": "Point", "coordinates": [127.7683668138328, 35.537443929892554]}, "properties": {"node_id": "R112", "original_node_id": "3960007903", "x": 269681.7695256484, "y": 326993.45417665725, "degree": 4, "node_role": "anchor|named_interchange_or_intersection|branch|node_type_106", "road_rank": "101", "road_class": "고속국도/고속도로", "importance_score": 176.570681, "node_type": "106", "node_name": "함양JCT1교", "turn_p": "1"}}, {"type": "Feature", "geometry": {"type": "Point", "coordinates": [127.29093432732004, 37.2391037593719]}, "properties": {"node_id": "R113", "original_node_id": "2430087101", "x": 225815.26675992686, "y": 515588.32571389043, "degree": 3, "node_role": "anchor|named_interchange_or_intersection|branch|node_type_106", "road_rank": "101", "road_class": "고속국도/고속도로", "importance_score": 175.589616, "node_type": "106", "node_name": "양지IC(서측)", "turn_p": "1"}}, {"type": "Feature", "geometry": {"type": "Point", "coordinates": [128.18061368733447, 37.07717826501417]}, "properties": {"node_id": "R114", "original_node_id": "2730007902", "x": 304984.1375761894, "y": 498230.2307008732, "degree": 4, "node_role": "anchor|named_interchange_or_intersection|branch|node_type_106", "road_rank": "101", "road_class": "고속국도/고속도로", "importance_score": 175.05493, "node_type": "106", "node_name": "남제천IC(북측)", "turn_p": "1"}}, {"type": "Feature", "geometry": {"type": "Point", "coordinates": [126.8720714234477, 37.19079347858841]}, "properties": {"node_id": "R115", "original_node_id": "2330508904", "x": 188641.37586305948, "y": 510194.77251904027, "degree": 3, "node_role": "anchor|named_interchange_or_intersection|branch|node_type_106", "road_rank": "101", "road_class": "고속국도/고속도로", "importance_score": 174.855497, "node_type": "106", "node_name": "팔탄JC", "turn_p": "0"}}, {"type": "Feature", "geometry": {"type": "Point", "coordinates": [127.05398524930861, 37.85615837467531]}, "properties": {"node_id": "R116", "original_node_id": "2350007210", "x": 204750.9041256266, "y": 584035.6556166928, "degree": 3, "node_role": "anchor|named_interchange_or_intersection|branch|node_type_106", "road_rank": "101", "road_class": "고속국도/고속도로", "importance_score": 174.24123, "node_type": "106", "node_name": "북양주IC교차로", "turn_p": "0"}}, {"type": "Feature", "geometry": {"type": "Point", "coordinates": [127.93070055228984, 37.06753034366294]}, "properties": {"node_id": "R117", "original_node_id": "2720127702", "x": 282770.8962240803, "y": 496912.5837436408, "degree": 3, "node_role": "anchor|named_interchange_or_intersection|branch|node_type_106", "road_rank": "101", "road_class": "고속국도/고속도로", "importance_score": 173.925436, "node_type": "106", "node_name": "동충주교차로", "turn_p": "1"}}, {"type": "Feature", "geometry": {"type": "Point", "coordinates": [126.80197721891537, 36.00531467298401]}, "properties": {"node_id": "R118", "original_node_id": "3070023401", "x": 182146.72276402786, "y": 378652.49890674034, "degree": 3, "node_role": "anchor|named_interchange_or_intersection|branch|node_type_106", "road_rank": "101", "road_class": "고속국도/고속도로", "importance_score": 173.811213, "node_type": "106", "node_name": "군산IC(남측)", "turn_p": "0"}}, {"type": "Feature", "geometry": {"type": "Point", "coordinates": [127.40212407909131, 35.43286161449249]}, "properties": {"node_id": "R119", "original_node_id": "3100011901", "x": 236514.90609507496, "y": 315192.8058688548, "degree": 3, "node_role": "anchor|named_interchange_or_intersection|branch|node_type_106", "road_rank": "101", "road_class": "고속국도/고속도로", "importance_score": 173.714703, "node_type": "106", "node_name": "남원IC(동측)", "turn_p": "1"}}, {"type": "Feature", "geometry": {"type": "Point", "coordinates": [128.98196380166644, 35.25220447328812]}, "properties": {"node_id": "R120", "original_node_id": "3850319601", "x": 380385.05583093874, "y": 296876.3432602349, "degree": 4, "node_role": "anchor|named_interchange_or_intersection|branch|node_type_106", "road_rank": "101", "road_class": "고속국도/고속도로", "importance_score": 173.463962, "node_type": "106", "node_name": "대동IC교차로", "turn_p": "0"}}, {"type": "Feature", "geometry": {"type": "Point", "coordinates": [127.71595233518336, 36.45743194298307]}, "properties": {"node_id": "R121", "original_node_id": "2750013309", "x": 264178.5453267872, "y": 429041.064283636, "degree": 3, "node_role": "anchor|named_interchange_or_intersection|branch|node_type_106", "road_rank": "101", "road_class": "고속국도/고속도로", "importance_score": 172.928796, "node_type": "106", "node_name": "보은IC", "turn_p": "0"}}, {"type": "Feature", "geometry": {"type": "Point", "coordinates": [126.80833935736467, 35.333435243777565]}, "properties": {"node_id": "R122", "original_node_id": "3420013401", "x": 182574.91108444153, "y": 304104.2546445364, "degree": 3, "node_role": "anchor|named_interchange_or_intersection|branch|node_type_106", "road_rank": "101", "road_class": "고속국도/고속도로", "importance_score": 171.887522, "node_type": "106", "node_name": "장성JC", "turn_p": "1"}}, {"type": "Feature", "geometry": {"type": "Point", "coordinates": [129.02343508806447, 36.45507448204165]}, "properties": {"node_id": "R123", "original_node_id": "3630085902", "x": 381397.62642194435, "y": 430444.88914981403, "degree": 3, "node_role": "anchor|named_interchange_or_intersection|branch|node_type_106", "road_rank": "101", "road_class": "고속국도/고속도로", "importance_score": 171.699913, "node_type": "106", "node_name": "청송IC", "turn_p": "1"}}, {"type": "Feature", "geometry": {"type": "Point", "coordinates": [127.3801922802339, 36.410728734849975]}, "properties": {"node_id": "R124", "original_node_id": "1860005602", "x": 234100.9781333797, "y": 423687.42454891733, "degree": 4, "node_role": "anchor|named_interchange_or_intersection|branch|node_type_106", "road_rank": "101", "road_class": "고속국도/고속도로", "importance_score": 171.42993, "node_type": "106", "node_name": "대덕밸리IC", "turn_p": "1"}}, {"type": "Feature", "geometry": {"type": "Point", "coordinates": [126.89582294695076, 37.428215599071535]}, "properties": {"node_id": "R125", "original_node_id": "2130000402", "x": 190779.2851440695, "y": 536542.1287927132, "degree": 6, "node_role": "anchor|named_interchange_or_intersection|branch|node_type_106", "road_rank": "101", "road_class": "고속국도/고속도로", "importance_score": 170.597382, "node_type": "106", "node_name": "일직JC", "turn_p": "0"}}, {"type": "Feature", "geometry": {"type": "Point", "coordinates": [127.30279622364142, 35.404306439625294]}, "properties": {"node_id": "R126", "original_node_id": "3100021802", "x": 227505.10413107253, "y": 311992.47689111537, "degree": 4, "node_role": "anchor|named_interchange_or_intersection|branch|node_type_106", "road_rank": "101", "road_class": "고속국도/고속도로", "importance_score": 169.452182, "node_type": "106", "node_name": "남원JC", "turn_p": "1"}}, {"type": "Feature", "geometry": {"type": "Point", "coordinates": [127.5912151310759, 35.485174694466664]}, "properties": {"node_id": "R127", "original_node_id": "3100016001", "x": 253650.75661981682, "y": 321083.2861158138, "degree": 4, "node_role": "anchor|named_interchange_or_intersection|branch|node_type_106", "road_rank": "101", "road_class": "고속국도/고속도로", "importance_score": 169.376963, "node_type": "106", "node_name": "지리산IC(동측)", "turn_p": "1"}}, {"type": "Feature", "geometry": {"type": "Point", "coordinates": [126.86921679910533, 36.995693634241526]}, "properties": {"node_id": "R128", "original_node_id": "2140007502", "x": 188358.10936552996, "y": 488543.0409977042, "degree": 3, "node_role": "anchor|named_interchange_or_intersection|branch|node_type_106", "road_rank": "101", "road_class": "고속국도/고속도로", "importance_score": 169.228534, "node_type": "106", "node_name": "서평택IC(남측)", "turn_p": "1"}}, {"type": "Feature", "geometry": {"type": "Point", "coordinates": [127.51645943702984, 36.10689923489587]}, "properties": {"node_id": "R129", "original_node_id": "2920005101", "x": 246503.15559275067, "y": 390029.70019991917, "degree": 3, "node_role": "anchor|named_interchange_or_intersection|branch|node_type_106", "road_rank": "101", "road_class": "고속국도/고속도로", "importance_score": 169.156152, "node_type": "106", "node_name": "금산IC", "turn_p": "1"}}, {"type": "Feature", "geometry": {"type": "Point", "coordinates": [127.82185070227648, 35.48353935803666]}, "properties": {"node_id": "R130", "original_node_id": "3950017501", "x": 274582.064924271, "y": 321051.6686958393, "degree": 3, "node_role": "anchor|named_interchange_or_intersection|branch|node_type_106", "road_rank": "101", "road_class": "고속국도/고속도로", "importance_score": 169.08377, "node_type": "106", "node_name": "생초IC", "turn_p": "1"}}, {"type": "Feature", "geometry": {"type": "Point", "coordinates": [128.3874629160979, 35.289398412300955]}, "properties": {"node_id": "R131", "original_node_id": "3900007601", "x": 326215.5305204087, "y": 300084.6319474127, "degree": 3, "node_role": "anchor|named_interchange_or_intersection|branch|node_type_106", "road_rank": "101", "road_class": "고속국도/고속도로", "importance_score": 168.713002, "node_type": "106", "node_name": "함안IC", "turn_p": "1"}}, {"type": "Feature", "geometry": {"type": "Point", "coordinates": [127.64653176022327, 35.84427570320144]}, "properties": {"node_id": "R132", "original_node_id": "3140001303", "x": 258408.4701710252, "y": 360958.8439389639, "degree": 3, "node_role": "anchor|named_interchange_or_intersection|branch|node_type_106", "road_rank": "101", "road_class": "고속국도/고속도로", "importance_score": 168.6226, "node_type": "106", "node_name": "덕유산IC", "turn_p": "1"}}, {"type": "Feature", "geometry": {"type": "Point", "coordinates": [128.02445364608658, 35.70306766640684]}, "properties": {"node_id": "R133", "original_node_id": "3970007902", "x": 292715.1280393659, "y": 345581.90281967894, "degree": 4, "node_role": "anchor|named_interchange_or_intersection|branch|node_type_106", "road_rank": "101", "road_class": "고속국도/고속도로", "importance_score": 168.541056, "node_type": "106", "node_name": "가조IC(서측)", "turn_p": "1"}}, {"type": "Feature", "geometry": {"type": "Point", "coordinates": [126.77110754543737, 35.72873957502566]}, "properties": {"node_id": "R134", "original_node_id": "3190012801", "x": 179291.74989795664, "y": 347970.7013771217, "degree": 3, "node_role": "anchor|named_interchange_or_intersection|branch|node_type_106", "road_rank": "101", "road_class": "고속국도/고속도로", "importance_score": 168.413394, "node_type": "106", "node_name": "부안IC(북측)", "turn_p": "1"}}, {"type": "Feature", "geometry": {"type": "Point", "coordinates": [128.04052840294332, 35.185235884235965]}, "properties": {"node_id": "R135", "original_node_id": "3810013901", "x": 294775.1405796435, "y": 288141.29452314967, "degree": 3, "node_role": "anchor|named_interchange_or_intersection|branch|node_type_106", "road_rank": "101", "road_class": "고속국도/고속도로", "importance_score": 168.357504, "node_type": "106", "node_name": "서진주IC", "turn_p": "1"}}, {"type": "Feature", "geometry": {"type": "Point", "coordinates": [128.09278251824213, 35.13990305355468]}, "properties": {"node_id": "R136", "original_node_id": "3810003001", "x": 299590.08029999956, "y": 283162.66310000047, "degree": 3, "node_role": "anchor|named_interchange_or_intersection|branch|node_type_106", "road_rank": "101", "road_class": "고속국도/고속도로", "importance_score": 168.332461, "node_type": "106", "node_name": "진주JC", "turn_p": "0"}}, {"type": "Feature", "geometry": {"type": "Point", "coordinates": [126.7925330558734, 35.28125038307287]}, "properties": {"node_id": "R137", "original_node_id": "3420017805", "x": 181125.7408584133, "y": 298317.4239991392, "degree": 6, "node_role": "anchor|named_interchange_or_intersection|branch|node_type_106", "road_rank": "101", "road_class": "고속국도/고속도로", "importance_score": 167.53137, "node_type": "106", "node_name": "가작교차로", "turn_p": "0"}}, {"type": "Feature", "geometry": {"type": "Point", "coordinates": [128.1904594437108, 35.696354938884596]}, "properties": {"node_id": "R138", "original_node_id": "3980017401", "x": 307748.66788655554, "y": 345006.5482941284, "degree": 3, "node_role": "anchor|named_interchange_or_intersection|branch|node_type_106", "road_rank": "101", "road_class": "고속국도/고속도로", "importance_score": 167.45288, "node_type": "106", "node_name": "해인사IC(동측)", "turn_p": "1"}}, {"type": "Feature", "geometry": {"type": "Point", "coordinates": [127.53297238260724, 34.995451268940634]}, "properties": {"node_id": "R139", "original_node_id": "3260085501", "x": 248657.00784406732, "y": 266720.03560204804, "degree": 5, "node_role": "anchor|named_interchange_or_intersection|branch|node_type_106", "road_rank": "101", "road_class": "고속국도/고속도로", "importance_score": 166.685384, "node_type": "106", "node_name": "순천JC", "turn_p": "0"}}, {"type": "Feature", "geometry": {"type": "Point", "coordinates": [128.5270580223213, 36.848405352295714]}, "properties": {"node_id": "R140", "original_node_id": "3560009901", "x": 336199.9252626217, "y": 473278.1657335125, "degree": 3, "node_role": "anchor|named_interchange_or_intersection|branch|node_type_106", "road_rank": "101", "road_class": "고속국도/고속도로", "importance_score": 166.653927, "node_type": "106", "node_name": "풍기IC앞교차로", "turn_p": "0"}}, {"type": "Feature", "geometry": {"type": "Point", "coordinates": [126.77906846736086, 37.5953046346749]}, "properties": {"node_id": "R141", "original_node_id": "2320000801", "x": 180488.87524466284, "y": 555104.7376663145, "degree": 4, "node_role": "anchor|named_interchange_or_intersection|branch|node_type_106", "road_rank": "101", "road_class": "고속국도/고속도로", "importance_score": 165.969066, "node_type": "106", "node_name": "김포IC", "turn_p": "1"}}, {"type": "Feature", "geometry": {"type": "Point", "coordinates": [127.45598319904474, 35.14826841735928]}, "properties": {"node_id": "R142", "original_node_id": "3260087201", "x": 241550.79565680676, "y": 283639.2533058065, "degree": 4, "node_role": "anchor|named_interchange_or_intersection|branch|node_type_106", "road_rank": "101", "road_class": "고속국도/고속도로", "importance_score": 165.952094, "node_type": "106", "node_name": "황전IC", "turn_p": "1"}}, {"type": "Feature", "geometry": {"type": "Point", "coordinates": [127.59214850930802, 37.22700919397478]}, "properties": {"node_id": "R143", "original_node_id": "2370005401", "x": 252551.2742999997, "y": 514370.67259999923, "degree": 3, "node_role": "anchor|named_interchange_or_intersection|branch|node_type_106", "road_rank": "101", "road_class": "고속국도/고속도로", "importance_score": 165.725785, "node_type": "106", "node_name": "여주JC(남측)", "turn_p": "0"}}, {"type": "Feature", "geometry": {"type": "Point", "coordinates": [128.7465660195911, 35.65455375130309]}, "properties": {"node_id": "R144", "original_node_id": "3660012302", "x": 358168.6696241845, "y": 341120.86092663015, "degree": 3, "node_role": "anchor|named_interchange_or_intersection|branch|node_type_106", "road_rank": "101", "road_class": "고속국도/고속도로", "importance_score": 165.54459, "node_type": "106", "node_name": "청도IC", "turn_p": "0"}}, {"type": "Feature", "geometry": {"type": "Point", "coordinates": [127.89906281812056, 37.36933575859517]}, "properties": {"node_id": "R145", "original_node_id": "2510022901", "x": 279639.2203613981, "y": 530381.5081547346, "degree": 4, "node_role": "anchor|named_interchange_or_intersection|branch|node_type_106", "road_rank": "101", "road_class": "고속국도/고속도로", "importance_score": 165.030454, "node_type": "106", "node_name": "만종JC", "turn_p": "1"}}, {"type": "Feature", "geometry": {"type": "Point", "coordinates": [127.85255177430176, 37.670913830516]}, "properties": {"node_id": "R146", "original_node_id": "2570005708", "x": 275215.81438473816, "y": 563815.6180570617, "degree": 4, "node_role": "anchor|named_interchange_or_intersection|branch|node_type_106", "road_rank": "101", "road_class": "고속국도/고속도로", "importance_score": 164.757853, "node_type": "106", "node_name": "홍천IC", "turn_p": "0"}}, {"type": "Feature", "geometry": {"type": "Point", "coordinates": [126.56945007255646, 36.81292545436418]}, "properties": {"node_id": "R147", "original_node_id": "2890010103", "x": 161582.24445058673, "y": 468338.68473121594, "degree": 3, "node_role": "anchor|named_interchange_or_intersection|branch|node_type_106", "road_rank": "101", "road_class": "고속국도/고속도로", "importance_score": 164.724346, "node_type": "106", "node_name": "서산IC앞", "turn_p": "0"}}, {"type": "Feature", "geometry": {"type": "Point", "coordinates": [128.61855396026374, 36.427050163737114]}, "properties": {"node_id": "R148", "original_node_id": "3540161501", "x": 345149.6807301741, "y": 426648.98188741744, "degree": 3, "node_role": "anchor|named_interchange_or_intersection|branch|node_type_106", "road_rank": "101", "road_class": "고속국도/고속도로", "importance_score": 164.609511, "node_type": "106", "node_name": "안동JC", "turn_p": "0"}}, {"type": "Feature", "geometry": {"type": "Point", "coordinates": [128.77308673725722, 35.45422589122156]}, "properties": {"node_id": "R149", "original_node_id": "3860019102", "x": 360970.7720405819, "y": 318933.87356331694, "degree": 3, "node_role": "anchor|named_interchange_or_intersection|branch|node_type_106", "road_rank": "101", "road_class": "고속국도/고속도로", "importance_score": 164.275916, "node_type": "106", "node_name": "남밀양IC", "turn_p": "0"}}, {"type": "Feature", "geometry": {"type": "Point", "coordinates": [127.26456397207086, 35.064406026453696]}, "properties": {"node_id": "R150", "original_node_id": "3260022511", "x": 224132.6507405854, "y": 274272.1711471222, "degree": 3, "node_role": "anchor|named_interchange_or_intersection|branch|node_type_106", "road_rank": "101", "road_class": "고속국도/고속도로", "importance_score": 164.159948, "node_type": "106", "node_name": "주암IC입구", "turn_p": "0"}}, {"type": "Feature", "geometry": {"type": "Point", "coordinates": [127.66177711386928, 34.971419859625826]}, "properties": {"node_id": "R151", "original_node_id": "3280009401", "x": 260433.88441342677, "y": 264124.2401761771, "degree": 4, "node_role": "anchor|named_interchange_or_intersection|branch|node_type_106", "road_rank": "101", "road_class": "고속국도/고속도로", "importance_score": 163.879887, "node_type": "106", "node_name": "동광양IC(동측)", "turn_p": "1"}}, {"type": "Feature", "geometry": {"type": "Point", "coordinates": [126.96959260976412, 35.2484271361785]}, "properties": {"node_id": "R152", "original_node_id": "3290007216", "x": 197232.58060234558, "y": 294656.5212101465, "degree": 3, "node_role": "anchor|named_interchange_or_intersection|branch|node_type_106", "road_rank": "101", "road_class": "고속국도/고속도로", "importance_score": 163.822862, "node_type": "106", "node_name": "담양JC", "turn_p": "1"}}, {"type": "Feature", "geometry": {"type": "Point", "coordinates": [127.81134425768806, 35.00061485963678]}, "properties": {"node_id": "R153", "original_node_id": "3940002401", "x": 274066.4322220322, "y": 267463.90321599646, "degree": 4, "node_role": "anchor|named_interchange_or_intersection|branch|node_type_106", "road_rank": "101", "road_class": "고속국도/고속도로", "importance_score": 163.737478, "node_type": "106", "node_name": "하동IC", "turn_p": "0"}}, {"type": "Feature", "geometry": {"type": "Point", "coordinates": [128.89078596332192, 36.436814776584164]}, "properties": {"node_id": "R154", "original_node_id": "3540164102", "x": 369544.26998454524, "y": 428176.84926790243, "degree": 4, "node_role": "anchor|named_interchange_or_intersection|branch|node_type_106", "road_rank": "101", "road_class": "고속국도/고속도로", "importance_score": 163.709991, "node_type": "106", "node_name": "동안동IC", "turn_p": "0"}}, {"type": "Feature", "geometry": {"type": "Point", "coordinates": [127.57000857697388, 36.31066926966624]}, "properties": {"node_id": "R155", "original_node_id": "2760149801", "x": 251191.9978, "y": 412667.8914000001, "degree": 3, "node_role": "anchor|named_interchange_or_intersection|branch|node_type_106", "road_rank": "101", "road_class": "고속국도/고속도로", "importance_score": 163.571946, "node_type": "106", "node_name": "옥천IC", "turn_p": "0"}}, {"type": "Feature", "geometry": {"type": "Point", "coordinates": [129.2901431460611, 35.47958471802382]}, "properties": {"node_id": "R156", "original_node_id": "1960353802", "x": 407854.0661997928, "y": 322714.1966726505, "degree": 3, "node_role": "anchor|named_interchange_or_intersection|branch|node_type_106", "road_rank": "101", "road_class": "고속국도/고속도로", "importance_score": 162.02644, "node_type": "106", "node_name": "청량IC교차로", "turn_p": "1"}}, {"type": "Feature", "geometry": {"type": "Point", "coordinates": [128.80554052581957, 35.19540150004512]}, "properties": {"node_id": "R157", "original_node_id": "3850002102", "x": 364440.9160128319, "y": 290266.8345778996, "degree": 3, "node_role": "anchor|named_interchange_or_intersection|branch|node_type_106", "road_rank": "101", "road_class": "고속국도/고속도로", "importance_score": 162.024302, "node_type": "106", "node_name": "장유IC(서측)", "turn_p": "1"}}, {"type": "Feature", "geometry": {"type": "Point", "coordinates": [127.75639392009435, 37.399426064800494]}, "properties": {"node_id": "R158", "original_node_id": "2400146902", "x": 266974.5880013946, "y": 533610.3325971061, "degree": 4, "node_role": "anchor|named_interchange_or_intersection|branch|node_type_106", "road_rank": "101", "road_class": "고속국도/고속도로", "importance_score": 161.431108, "node_type": "106", "node_name": "동양평IC", "turn_p": "1"}}, {"type": "Feature", "geometry": {"type": "Point", "coordinates": [127.64755233083078, 35.97580850400379]}, "properties": {"node_id": "R159", "original_node_id": "3140011501", "x": 258403.92162191248, "y": 375554.2761174647, "degree": 3, "node_role": "anchor|named_interchange_or_intersection|branch|node_type_106", "road_rank": "101", "road_class": "고속국도/고속도로", "importance_score": 160.625654, "node_type": "106", "node_name": "무주IC", "turn_p": "0"}}, {"type": "Feature", "geometry": {"type": "Point", "coordinates": [129.3933703230259, 35.94549994703738]}, "properties": {"node_id": "R160", "original_node_id": "3500091002", "x": 415963.1676829749, "y": 374646.1132396844, "degree": 3, "node_role": "anchor|named_interchange_or_intersection|branch|node_type_106", "road_rank": "101", "road_class": "고속국도/고속도로", "importance_score": 160.069372, "node_type": "106", "node_name": "문덕교차로램프", "turn_p": "1"}}, {"type": "Feature", "geometry": {"type": "Point", "coordinates": [127.44158702463423, 37.18747377890298]}, "properties": {"node_id": "R161", "original_node_id": "2300265401", "x": 239209.79280598124, "y": 509910.0115508569, "degree": 6, "node_role": "anchor|named_interchange_or_intersection|branch|node_type_106", "road_rank": "101", "road_class": "고속국도/고속도로", "importance_score": 160.049738, "node_type": "106", "node_name": "남이천IC(북측)", "turn_p": "1"}}, {"type": "Feature", "geometry": {"type": "Point", "coordinates": [129.2244225124345, 36.06512462044577]}, "properties": {"node_id": "R162", "original_node_id": "3510006310", "x": 400412.692427863, "y": 387561.7956446125, "degree": 3, "node_role": "anchor|named_interchange_or_intersection|branch|node_type_106", "road_rank": "101", "road_class": "고속국도/고속도로", "importance_score": 159.953839, "node_type": "106", "node_name": "서포항IC입구", "turn_p": "0"}}, {"type": "Feature", "geometry": {"type": "Point", "coordinates": [129.3693324384768, 36.38824150562738]}, "properties": {"node_id": "R163", "original_node_id": "3650170410", "x": 412593.84609999973, "y": 423733.5421999991, "degree": 3, "node_role": "anchor|named_interchange_or_intersection|branch|node_type_106", "road_rank": "101", "road_class": "고속국도/고속도로", "importance_score": 159.824869, "node_type": "106", "node_name": "영덕IC", "turn_p": "0"}}, {"type": "Feature", "geometry": {"type": "Point", "coordinates": [127.95588062139224, 36.44544183129012]}, "properties": {"node_id": "R164", "original_node_id": "3580026302", "x": 285699.6181973273, "y": 427896.9731000185, "degree": 3, "node_role": "anchor|named_interchange_or_intersection|branch|node_type_106", "road_rank": "101", "road_class": "고속국도/고속도로", "importance_score": 159.645375, "node_type": "106", "node_name": "화서IC앞", "turn_p": "0"}}, {"type": "Feature", "geometry": {"type": "Point", "coordinates": [126.78890441555836, 36.237577539914184]}, "properties": {"node_id": "R165", "original_node_id": "2940015301", "x": 181024.08222925404, "y": 404427.2054246294, "degree": 3, "node_role": "anchor|named_interchange_or_intersection|branch|node_type_106", "road_rank": "101", "road_class": "고속국도/고속도로", "importance_score": 159.504494, "node_type": "106", "node_name": "서부여IC", "turn_p": "0"}}, {"type": "Feature", "geometry": {"type": "Point", "coordinates": [128.3716169545301, 36.91915126503056]}, "properties": {"node_id": "R166", "original_node_id": "2820001914", "x": 322222.3422710673, "y": 480919.48984710267, "degree": 3, "node_role": "anchor|named_interchange_or_intersection|branch|node_type_106", "road_rank": "101", "road_class": "고속국도/고속도로", "importance_score": 159.49123, "node_type": "106", "node_name": "대강교차로", "turn_p": "1"}}, {"type": "Feature", "geometry": {"type": "Point", "coordinates": [128.0862454775043, 37.23596396173221]}, "properties": {"node_id": "R167", "original_node_id": "2510003506", "x": 296390.48685374984, "y": 515753.12630934385, "degree": 3, "node_role": "anchor|named_interchange_or_intersection|branch|node_type_106", "road_rank": "101", "road_class": "고속국도/고속도로", "importance_score": 159.487784, "node_type": "106", "node_name": "신림IC앞", "turn_p": "0"}}, {"type": "Feature", "geometry": {"type": "Point", "coordinates": [126.4871628936932, 35.02561191706836]}, "properties": {"node_id": "R168", "original_node_id": "3400015702", "x": 153198.4163180361, "y": 270056.5054458762, "degree": 3, "node_role": "anchor|named_interchange_or_intersection|branch|node_type_106", "road_rank": "101", "road_class": "고속국도/고속도로", "importance_score": 159.379145, "node_type": "106", "node_name": "함평JC", "turn_p": "1"}}, {"type": "Feature", "geometry": {"type": "Point", "coordinates": [128.49418800211384, 37.63647870612496]}, "properties": {"node_id": "R169", "original_node_id": "2600014104", "x": 331887.2273063026, "y": 560701.9417730969, "degree": 3, "node_role": "anchor|named_interchange_or_intersection|branch|node_type_106", "road_rank": "101", "road_class": "고속국도/고속도로", "importance_score": 159.36815, "node_type": "106", "node_name": "속사IC앞", "turn_p": "1"}}, {"type": "Feature", "geometry": {"type": "Point", "coordinates": [127.30145372771976, 34.83964711489053]}, "properties": {"node_id": "R170", "original_node_id": "3330028402", "x": 227572.78097581185, "y": 249346.9148351611, "degree": 3, "node_role": "anchor|named_interchange_or_intersection|branch|node_type_106", "road_rank": "101", "road_class": "고속국도/고속도로", "importance_score": 159.039529, "node_type": "106", "node_name": "벌교IC", "turn_p": "0"}}, {"type": "Feature", "geometry": {"type": "Point", "coordinates": [126.83199013454905, 35.57828553300431]}, "properties": {"node_id": "R171", "original_node_id": "3090009202", "x": 184771.3645010107, "y": 331266.2716777736, "degree": 3, "node_role": "anchor|named_interchange_or_intersection|branch|node_type_106", "road_rank": "101", "road_class": "고속국도/고속도로", "importance_score": 158.93774, "node_type": "106", "node_name": "정읍IC(남측)", "turn_p": "1"}}, {"type": "Feature", "geometry": {"type": "Point", "coordinates": [128.62200225870626, 36.47356661240001]}, "properties": {"node_id": "R172", "original_node_id": "3540003801", "x": 345372.0923925024, "y": 431816.5981731047, "degree": 3, "node_role": "anchor|named_interchange_or_intersection|branch|node_type_106", "road_rank": "101", "road_class": "고속국도/고속도로", "importance_score": 158.537565, "node_type": "106", "node_name": "남안동IC", "turn_p": "0"}}, {"type": "Feature", "geometry": {"type": "Point", "coordinates": [127.044832113978, 36.79607828772292]}, "properties": {"node_id": "R173", "original_node_id": "2881946801", "x": 204001.21300000045, "y": 466383.5318999998, "degree": 8, "node_role": "anchor|named_interchange_or_intersection|branch|node_type_106", "road_rank": "101", "road_class": "고속국도/고속도로", "importance_score": 158.180977, "node_type": "106", "node_name": "현충교차로", "turn_p": "1"}}, {"type": "Feature", "geometry": {"type": "Point", "coordinates": [128.54358409809632, 36.66963158561876]}, "properties": {"node_id": "R174", "original_node_id": "3700011801", "x": 337993.9735107429, "y": 453460.71310655336, "degree": 4, "node_role": "anchor|named_interchange_or_intersection|branch|node_type_106", "road_rank": "101", "road_class": "고속국도/고속도로", "importance_score": 157.866056, "node_type": "106", "node_name": "예천IC", "turn_p": "1"}}, {"type": "Feature", "geometry": {"type": "Point", "coordinates": [126.47955009369716, 34.86143355653619]}, "properties": {"node_id": "R175", "original_node_id": "3390003551", "x": 152408.8978813101, "y": 251845.9684728674, "degree": 3, "node_role": "anchor|named_interchange_or_intersection|branch|node_type_106", "road_rank": "101", "road_class": "고속국도/고속도로", "importance_score": 157.780323, "node_type": "106", "node_name": "일로IC앞", "turn_p": "1"}}, {"type": "Feature", "geometry": {"type": "Point", "coordinates": [126.59960228547882, 35.064855505024795]}, "properties": {"node_id": "R176", "original_node_id": "3270015403", "x": 163477.1871829349, "y": 274363.3442427531, "degree": 3, "node_role": "anchor|named_interchange_or_intersection|branch|node_type_106", "road_rank": "101", "road_class": "고속국도/고속도로", "importance_score": 157.349084, "node_type": "106", "node_name": "문평IC교차로", "turn_p": "1"}}, {"type": "Feature", "geometry": {"type": "Point", "coordinates": [126.76547602596554, 37.85270602934879]}, "properties": {"node_id": "R177", "original_node_id": "2290013003", "x": 179360.03581644635, "y": 583677.0145518994, "degree": 3, "node_role": "anchor|named_interchange_or_intersection|branch|node_type_106", "road_rank": "101", "road_class": "고속국도/고속도로", "importance_score": 157.287696, "node_type": "106", "node_name": "내포IC", "turn_p": "0"}}, {"type": "Feature", "geometry": {"type": "Point", "coordinates": [127.76539521180986, 37.84165131007128]}, "properties": {"node_id": "R178", "original_node_id": "2500009102", "x": 267371.3415728322, "y": 582700.1636808723, "degree": 3, "node_role": "anchor|named_interchange_or_intersection|branch|node_type_106", "road_rank": "101", "road_class": "고속국도/고속도로", "importance_score": 157.206763, "node_type": "106", "node_name": "춘천IC입구(남측)", "turn_p": "1"}}, {"type": "Feature", "geometry": {"type": "Point", "coordinates": [126.49406486699463, 37.482210447292694]}, "properties": {"node_id": "R179", "original_node_id": "1720156700", "x": 155251.69746048213, "y": 542649.9422131594, "degree": 3, "node_role": "anchor|named_interchange_or_intersection|branch|node_type_106", "road_rank": "101", "road_class": "고속국도/고속도로", "importance_score": 157.137435, "node_type": "106", "node_name": "공항신도시JC도윽", "turn_p": "1"}}, {"type": "Feature", "geometry": {"type": "Point", "coordinates": [129.00439112099102, 36.05490444668178]}, "properties": {"node_id": "R180", "original_node_id": "3570881901", "x": 380609.3596000001, "y": 385996.6126000006, "degree": 7, "node_role": "anchor|named_interchange_or_intersection|branch|node_type_106", "road_rank": "101", "road_class": "고속국도/고속도로", "importance_score": 157.102836, "node_type": "106", "node_name": "임고하이패스IC(서측)", "turn_p": "1"}}, {"type": "Feature", "geometry": {"type": "Point", "coordinates": [128.5643053923312, 35.235922159326385]}, "properties": {"node_id": "R181", "original_node_id": "4170024201", "x": 342397.4562097555, "y": 294390.41194723593, "degree": 3, "node_role": "anchor|named_interchange_or_intersection|branch|node_type_106", "road_rank": "101", "road_class": "고속국도/고속도로", "importance_score": 157.09315, "node_type": "106", "node_name": "서마산IC", "turn_p": "1"}}, {"type": "Feature", "geometry": {"type": "Point", "coordinates": [127.44650802903823, 35.77158402565989]}, "properties": {"node_id": "R182", "original_node_id": "3130018502", "x": 240374.71530558492, "y": 352792.2899585127, "degree": 3, "node_role": "anchor|named_interchange_or_intersection|branch|node_type_106", "road_rank": "101", "road_class": "고속국도/고속도로", "importance_score": 157.084424, "node_type": "106", "node_name": "진안IC", "turn_p": "0"}}, {"type": "Feature", "geometry": {"type": "Point", "coordinates": [129.1221119641349, 36.50269152404785]}, "properties": {"node_id": "R183", "original_node_id": "3630087704", "x": 390128.5871371848, "y": 435920.1906857367, "degree": 3, "node_role": "anchor|named_interchange_or_intersection|branch|node_type_106", "road_rank": "101", "road_class": "고속국도/고속도로", "importance_score": 157.077792, "node_type": "106", "node_name": "동청송영양IC교차로", "turn_p": "0"}}, {"type": "Feature", "geometry": {"type": "Point", "coordinates": [129.23679603851727, 35.51218997561298]}, "properties": {"node_id": "R184", "original_node_id": "1960005809", "x": 402929.3831169554, "y": 326221.54939099716, "degree": 3, "node_role": "anchor|named_interchange_or_intersection|branch|node_type_106", "road_rank": "101", "road_class": "고속국도/고속도로", "importance_score": 157.010689, "node_type": "106", "node_name": "문수IC교차로", "turn_p": "1"}}, {"type": "Feature", "geometry": {"type": "Point", "coordinates": [127.32906772733405, 37.66031407070023]}, "properties": {"node_id": "R185", "original_node_id": "2220316200", "x": 229035.67756117877, "y": 562348.0933614221, "degree": 3, "node_role": "anchor|named_interchange_or_intersection|branch|node_type_106", "road_rank": "101", "road_class": "고속국도/고속도로", "importance_score": 156.510253, "node_type": "106", "node_name": "달뫼IC", "turn_p": "0"}}, {"type": "Feature", "geometry": {"type": "Point", "coordinates": [128.04621881235678, 37.90945860412725]}, "properties": {"node_id": "R186", "original_node_id": "2570133201", "x": 292006.1027704375, "y": 590466.4516654216, "degree": 3, "node_role": "anchor|named_interchange_or_intersection|branch|node_type_106", "road_rank": "101", "road_class": "고속국도/고속도로", "importance_score": 155.584293, "node_type": "106", "node_name": "원거교차로", "turn_p": "1"}}, {"type": "Feature", "geometry": {"type": "Point", "coordinates": [128.0931292604705, 37.97963938716758]}, "properties": {"node_id": "R187", "original_node_id": "2650053601", "x": 296040.2010453876, "y": 598303.8749465076, "degree": 4, "node_role": "anchor|named_interchange_or_intersection|branch|node_type_106", "road_rank": "101", "road_class": "고속국도/고속도로", "importance_score": 155.260864, "node_type": "106", "node_name": "유목교차로", "turn_p": "1"}}, {"type": "Feature", "geometry": {"type": "Point", "coordinates": [126.78061324812647, 36.626643149641495]}, "properties": {"node_id": "R188", "original_node_id": "2980125001", "x": 180376.94143984703, "y": 447602.41068481706, "degree": 3, "node_role": "anchor|named_interchange_or_intersection|branch|node_type_106", "road_rank": "101", "road_class": "고속국도/고속도로", "importance_score": 155.153316, "node_type": "106", "node_name": "예산예당호휴게소하이패스IC", "turn_p": "0"}}, {"type": "Feature", "geometry": {"type": "Point", "coordinates": [127.31984741213536, 35.55178512338973]}, "properties": {"node_id": "R189", "original_node_id": "3160014501", "x": 229000.9729955896, "y": 328360.10146782314, "degree": 3, "node_role": "anchor|named_interchange_or_intersection|branch|node_type_106", "road_rank": "101", "road_class": "고속국도/고속도로", "importance_score": 154.126222, "node_type": "106", "node_name": "오수IC", "turn_p": "0"}}, {"type": "Feature", "geometry": {"type": "Point", "coordinates": [127.8650522051658, 37.394773934207514]}, "properties": {"node_id": "R190", "original_node_id": "2510248701", "x": 276600.60744530894, "y": 533176.6919563513, "degree": 3, "node_role": "anchor|named_interchange_or_intersection|branch|node_type_106", "road_rank": "101", "road_class": "고속국도/고속도로", "importance_score": 153.493412, "node_type": "106", "node_name": "서원주IC", "turn_p": "0"}}, {"type": "Feature", "geometry": {"type": "Point", "coordinates": [127.04786493735034, 36.461893903926224]}, "properties": {"node_id": "R191", "original_node_id": "2860180501", "x": 204290.37285161534, "y": 429298.98322375095, "degree": 7, "node_role": "anchor|named_interchange_or_intersection|branch|node_type_106", "road_rank": "101", "road_class": "고속국도/고속도로", "importance_score": 153.024695, "node_type": "106", "node_name": "방흥교차로", "turn_p": "0"}}, {"type": "Feature", "geometry": {"type": "Point", "coordinates": [128.83704063683513, 37.764191084907466]}, "properties": {"node_id": "R192", "original_node_id": "2520012902", "x": 361874.0911642673, "y": 575416.1102796791, "degree": 3, "node_role": "anchor|named_interchange_or_intersection|branch|node_type_106", "road_rank": "101", "road_class": "고속국도/고속도로", "importance_score": 152.607199, "node_type": "106", "node_name": "강릉JC", "turn_p": "1"}}, {"type": "Feature", "geometry": {"type": "Point", "coordinates": [127.44460749126394, 37.52325270288406]}, "properties": {"node_id": "R193", "original_node_id": "2400240102", "x": 239302.52325030058, "y": 547177.7580366225, "degree": 3, "node_role": "anchor|named_interchange_or_intersection|branch|node_type_106", "road_rank": "101", "road_class": "고속국도/고속도로", "importance_score": 152.398517, "node_type": "106", "node_name": "양평IC", "turn_p": "0"}}, {"type": "Feature", "geometry": {"type": "Point", "coordinates": [127.21150427964339, 37.88376224092043]}, "properties": {"node_id": "R194", "original_node_id": "2360209602", "x": 218606.23561079355, "y": 587119.2342133565, "degree": 3, "node_role": "anchor|named_interchange_or_intersection|branch|node_type_106", "road_rank": "101", "road_class": "고속국도/고속도로", "importance_score": 152.365925, "node_type": "106", "node_name": "포천IC교차로", "turn_p": "1"}}, {"type": "Feature", "geometry": {"type": "Point", "coordinates": [128.60516667757454, 38.06386676303538]}, "properties": {"node_id": "R195", "original_node_id": "2670088102", "x": 340867.8447778226, "y": 608305.7828299454, "degree": 3, "node_role": "anchor|named_interchange_or_intersection|branch|node_type_106", "road_rank": "101", "road_class": "고속국도/고속도로", "importance_score": 152.311562, "node_type": "106", "node_name": "양양JC", "turn_p": "0"}}, {"type": "Feature", "geometry": {"type": "Point", "coordinates": [128.5853079274351, 38.15237303656088]}, "properties": {"node_id": "R196", "original_node_id": "2670087502", "x": 338957.1401414308, "y": 618100.827765836, "degree": 3, "node_role": "anchor|named_interchange_or_intersection|branch|node_type_106", "road_rank": "101", "road_class": "고속국도/고속도로", "importance_score": 152.203141, "node_type": "106", "node_name": "북양양IC", "turn_p": "1"}}, {"type": "Feature", "geometry": {"type": "Point", "coordinates": [126.76072011073605, 37.38360859528484]}, "properties": {"node_id": "R197", "original_node_id": "2240004502", "x": 178808.7554193392, "y": 531613.1801182856, "degree": 4, "node_role": "anchor|named_interchange_or_intersection|branch|node_type_106", "road_rank": "101", "road_class": "고속국도/고속도로", "importance_score": 152.202225, "node_type": "106", "node_name": "월곶JC(남측)", "turn_p": "0"}}, {"type": "Feature", "geometry": {"type": "Point", "coordinates": [129.00662345392192, 35.91710485897675]}, "properties": {"node_id": "R198", "original_node_id": "3570850802", "x": 381125.37181694194, "y": 370707.7625644519, "degree": 4, "node_role": "anchor|named_interchange_or_intersection|branch|node_type_106", "road_rank": "101", "road_class": "고속국도/고속도로", "importance_score": 152.189703, "node_type": "106", "node_name": "영천JC", "turn_p": "1"}}, {"type": "Feature", "geometry": {"type": "Point", "coordinates": [126.89050547886337, 37.67371180129533]}, "properties": {"node_id": "R199", "original_node_id": "2180044101", "x": 190340.370884598, "y": 563789.806930665, "degree": 4, "node_role": "anchor|named_interchange_or_intersection|branch|node_type_106", "road_rank": "101", "road_class": "고속국도/고속도로", "importance_score": 152.004319, "node_type": "106", "node_name": "통일로IC", "turn_p": "0"}}, {"type": "Feature", "geometry": {"type": "Point", "coordinates": [128.0726756363737, 37.45140031702426]}, "properties": {"node_id": "R200", "original_node_id": "2580005008", "x": 294914.71909880155, "y": 539650.5232748854, "degree": 3, "node_role": "anchor|named_interchange_or_intersection|branch|node_type_106", "road_rank": "101", "road_class": "고속국도/고속도로", "importance_score": 151.919721, "node_type": "106", "node_name": "새말IC앞", "turn_p": "0"}}]}